#aV2007  4 13  0  0   .00000000      96 DD+AD WGS84 FIT  NGA
## 1422 432000.00000000   900.00000000 54203  .0000000000000
+   30     1  2  3  4  5  6  7  8  9 10 11 12 13 14 16 17 18
+         19 20 21 22 23 24 25 26 27 28 29 30 31  0  0  0  0
+          0  0  0  0  0  0  0  0  0  0  0  0  0  0  0  0  0
+          0  0  0  0  0  0  0  0  0  0  0  0  0  0  0  0  0
+          0  0  0  0  0  0  0  0  0  0  0  0  0  0  0  0  0
++         0  0  0  0  0  0  0  0  0  0  0  0  0  0  0  0  0
++         0  0  0  0  0  0  0  0  0  0  0  0  0  0  0  0  0
++         0  0  0  0  0  0  0  0  0  0  0  0  0  0  0  0  0
++         0  0  0  0  0  0  0  0  0  0  0  0  0  0  0  0  0
++         0  0  0  0  0  0  0  0  0  0  0  0  0  0  0  0  0
%c cc cc ccc ccc cccc cccc cccc cccc ccccc ccccc ccccc ccccc
%c cc cc ccc ccc cccc cccc cccc cccc ccccc ccccc ccccc ccccc
%f  0.0000000  0.000000000  0.00000000000  0.000000000000000
%f  0.0000000  0.000000000  0.00000000000  0.000000000000000
%i    0    0    0    0      0      0      0      0         0
%i    0    0    0    0      0      0      0      0         0
/*      NGA, ST. LOUIS,MO.                                  
/*   EPHEMERIS COMPUTED FROM  3 DAYS OF DATA                
/* CCCCCCCCCCCCCCCCCCCCCCCCCCCCCCCCCCCCCCCCCCCCCCCCCCCCCCCCC
/* CCCCCCCCCCCCCCCCCCCCCCCCCCCCCCCCCCCCCCCCCCCCCCCCCCCCCCCCC
*  2007  4 13 15 15   .00000000                                                 
P  1 -14450.533763  22241.108550   -231.687059    120.183908                    
V  1  -1330.325566  -1498.073664 -32436.540522       .026905                    
P  2  12429.631152 -13609.850107  18799.814692     98.574489                    
V  2  24492.749572   1611.796825 -15120.241687       .030196                    
P  3  -9719.748530  24480.355241  -1659.181668     42.108247                    
V  3  -4586.348372      6.375797  31088.297440       .056443                    
P  4  23728.293728  -6963.751014  10097.078875     10.225363                    
V  4  12789.782404   2807.977831 -27572.244090       .006150                    
P  5 -14966.223222 -22043.643808   -502.431855     33.587048                    
V  5   2963.756958  -1628.504127 -31163.828234      -.070593                    
P  6 -12145.577047 -10670.967957  21258.234541    139.159735                    
V  6  12927.015732 -23328.382666  -4411.292046       .181086                    
P  7 -14899.735090  -5751.863775  21570.114162    346.725154                    
V  7  11725.064306 -23966.949955   1661.961989      -.153105                    
P  8  26781.938566    509.201564  -1017.244215   -103.546615                    
V  8   1047.599886   1966.232432  31793.020740      -.013706                    
P  9  -7710.265271 -14568.109908 -21460.017242     65.845214                    
V  9  25795.028466  -1521.720596  -8245.655430       .016720                    
P 10   2849.970103 -19645.112521  17369.021724    100.274464                    
V 10  12276.353312  18801.465011  19440.488546       .007010                    
P 11  10650.202925  14345.018873 -19823.845284     13.180222                    
V 11 -24607.442187   5481.930278  -9010.398852       .011380                    
P 12 -11849.190046 -23674.151474  -2362.367722    -43.979256                    
V 12   3955.863637   1320.576232 -31541.398383      -.000634                    
P 13  12527.318627   7169.250122  22195.200915    162.679332                    
V 13 -14936.808374  24077.841880    694.826679       .036708                    
P 14 -18506.450703  12021.557589 -14649.677533     15.661737                    
V 14   8359.497787 -16815.236911 -24291.669531       .016183                    
P 16  -7760.896546  15185.308958  20411.388553    139.411096                    
V 16 -13492.759178 -21963.249194  11397.445419       .032147                    
P 17  18708.072749  -9864.305530 -15978.638054     71.847582                    
V 17  -8532.119224  18594.887803 -21580.633625      -.013684                    
P 18 -18367.882711 -11954.593078 -15099.238152   -251.762273                    
V 18  -7178.923468 -18025.578216  22475.154880       .005930                    
P 19  -5460.417409  23092.097261 -11724.302908     24.380530                    
V 19 -10478.087403  11148.081483  26716.613039       .036856                    
P 20  12532.930282  23391.379821  -1651.534193    -23.646385                    
V 20  -3606.334593   -153.227686 -31461.591003      -.003294                    
P 21 -25356.511082  -5782.580029   6818.671344     75.299252                    
V 21   8493.608820  -2548.071950  29329.439997       .006357                    
P 22 -16493.915541    180.223815 -20670.596157    176.772816                    
V 22 -11399.145298 -24074.878013   8795.963634       .020154                    
P 23   5498.424272  17078.674169  19434.086201    159.835962                    
V 23 -13536.763905  20927.691995 -14690.787029       .022607                    
P 24 -15930.805798 -12814.380294  16999.997041     92.506917                    
V 24  21392.957119   -887.742705  19906.686254       .029793                    
P 25   4757.171411  14945.617465  21833.693958    235.095323                    
V 25 -26626.614932   2958.564217   4009.599871      -.273756                    
P 26   6501.356075 -23383.719146 -10491.331934   -139.305585                    
V 26   8420.789121  -9881.447065  28965.929083      -.199931                    
P 27  24676.867239   5042.933286   9453.399595    104.826443                    
V 27 -10864.277902   2833.929761  28589.460212       .021961                    
P 28  17653.885671   4401.413212 -19137.598612      3.301297                    
V 28  10916.129654  22410.533595  14624.287268      -.008604                    
P 29   9740.950219 -23880.685343  -5250.383562      1.606793                    
V 29   5387.401455  -4966.087869  31681.857259       .004464                    
P 30 -17699.599474 -18422.524460   7170.038452     30.898054                    
V 30  -2453.665393  -9676.796507 -29548.633460       .011020                    
P 31 -22424.724904   8353.251872  11798.739451     19.350205                    
V 31 -14658.698063  -2168.345180 -26714.655578       .009014                    
EOF
